#aV2013  8  9  0  0  0.00000000     288 DD+AD WGS84 FIT  NGA
## 1752 432000.00000000   300.00000000 56513 0.0000000000000
+   31     1  2  3  4  5  6  7  8  9 10 11 12 13 14 15 16 17
+         18 19 20 21 22 23 24 25 26 27 28 29 31 32  0  0  0
+          0  0  0  0  0  0  0  0  0  0  0  0  0  0  0  0  0
+          0  0  0  0  0  0  0  0  0  0  0  0  0  0  0  0  0
+          0  0  0  0  0  0  0  0  0  0  0  0  0  0  0  0  0
++         2  2  2  2  2  2  2  2  2  2  2  2  2  2  2  2  2
++         2  2  2  2  2  2  2  2  2  2  2  2  2  2  2  0  0
++         0  0  0  0  0  0  0  0  0  0  0  0  0  0  0  0  0
++         0  0  0  0  0  0  0  0  0  0  0  0  0  0  0  0  0
++         0  0  0  0  0  0  0  0  0  0  0  0  0  0  0  0  0
%c cc cc ccc ccc cccc cccc cccc cccc ccccc ccccc ccccc ccccc
%c cc cc ccc ccc cccc cccc cccc cccc ccccc ccccc ccccc ccccc
%f  0.0000000  0.000000000  0.00000000000  0.000000000000000
%f  0.0000000  0.000000000  0.00000000000  0.000000000000000
%i    0    0    0    0      0      0      0      0         0
%i    0    0    0    0      0      0      0      0         0
/*      NGA, ST. LOUIS,MO.                                  
/*   EPHEMERIS COMPUTED FROM  1 DAYS OF DATA
/*   EPOCHA SMOOTHER  
/* CCCCCCCCCCCCCCCCCCCCCCCCCCCCCCCCCCCCCCCCCCCCCCCCCCCCCCCCC
*  2013  8  9 14 45  0.00000000                                                 
P  1   1545.741817 -16409.536458 -20829.081018     60.931812                    
V  1  24729.262668  -9340.316730   9301.882563      0.047007                    
P  2 -21689.072713  13927.935256   5392.678186    445.735512                    
V  2  -7652.670128   -752.546191 -30577.089368      0.017964                    
P  3   9068.501598 -21016.319867  12770.268979    243.764105                    
V  3   3476.823475  17156.338274  24946.551669      0.050835                    
P  4 -25369.542982   5635.805257  -6426.546521    295.317999                    
V  4   5932.858670  -5879.168689 -29656.689347      0.103157                    
P  5 -12426.040136   9795.980952  21322.039740   -399.393281                    
V  5 -21398.375892 -16737.197798  -4629.250813     -0.002410                    
P  6  13478.800068 -14959.992229  17192.228758    101.723989                    
V  6    864.314077  22007.712942  18919.455198     -0.187721                    
P  7 -14688.975004  -9024.942126  20343.283296    245.463901                    
V  7  23536.132396 -10065.060640  12250.741357      0.041944                    
P  8 -22933.223895  -2606.932868  13794.829586      7.877718                    
V  8  16114.930282  -5533.252672  25380.043644      0.002342                    
P  9 -22822.222520    135.321686  13110.893326    260.179962                    
V  9  15441.078035  -8400.523620  25788.753101      0.024577                    
P 10 -22542.645185  -5920.005086  12814.567131    -89.969533                    
V 10 -11515.109146 -12265.425554 -24916.592580     -0.014602                    
P 11   6368.037956 -21168.511416 -15000.784488   -408.667802                    
V 11  16547.201704  -9238.060422  20960.334682     -0.035638                    
P 12   4036.449842  18970.371012 -18288.764421    149.547254                    
V 12 -18468.128758 -13732.906805 -18164.962417      0.021583                    
P 13  -6390.793234 -19972.939398  16081.580009     91.714915                    
V 13   6281.497288 -19769.248388 -22012.511577     -0.037487                    
P 14  14956.679975    608.655470 -21723.169827    218.191089                    
V 14  -5275.847237  27557.155778  -2983.559836     -0.006233                    
P 15  -2611.716832  26287.876141     54.126644   -131.438176                    
V 15  -3683.082833   -464.623778  31453.224728     -0.017539                    
P 16  12625.612609  -8294.684408  21850.059721   -248.926585                    
V 16  21024.831566  18044.683061  -4965.430377      0.006190                    
P 17 -14772.089969  -2570.958544 -21701.492264     -9.508863                    
V 17   4603.067405 -27691.725547    -84.034453     -0.038147                    
P 18  20758.106083  16855.192562   1159.760737    267.886490                    
V 18  -2938.065015   2261.213680  30712.747396      0.019661                    
P 19   8190.581554 -24725.018336   3734.738462   -395.275168                    
V 19   1922.471379   5485.352111  31618.443625     -0.028515                    
P 20  -9808.291150 -19984.511111 -14714.019626    114.609360                    
V 20  16787.913290   8121.766955 -22411.953513      0.024106                    
P 21  18243.526802   7353.930974  18647.544784   -312.708831                    
V 21 -20105.564386  10044.260406  15707.246858     -0.019385                    
P 22  23193.819604   8255.551255  -9950.252357    179.327126                    
V 22   8208.527502  10586.214938  27211.973776      0.016420                    
P 23  -1746.526668 -25248.445878   7414.599593     59.110874                    
V 23   4426.405289  -8887.218802 -29956.131612     -0.035058                    
P 24  -5792.599070  17248.985453 -19343.238738    -11.534752                    
V 24 -23101.577352   8446.107496  14499.871905     -0.006859                    
P 25  16325.613317  19340.717883  -8278.924486    133.290383                    
V 25  -9593.961465  -4527.722471 -29615.070392      0.047588                    
P 26 -12631.072962  19502.964152  11922.281493    134.612469                    
V 26   1320.576655 -16356.337328  27050.451341      0.172857                    
P 27  12397.451641 -18633.938021  14283.549993    -21.696401                    
V 27   -133.464656  18284.008641  23962.248800     -0.048996                    
P 28 -22107.335170 -12743.006956  -7096.146829    282.749050                    
V 28  -6115.668394  -7825.032483  30426.922900      0.031774                    
P 29   6092.926522  21639.110528  14220.916267    460.734127                    
V 29  -5091.473650  17329.767636 -24217.127013      0.032443                    
P 31  25444.478971  -6376.609905  -4869.868663    322.991318                    
V 31  -5208.236031   4094.676722 -31210.710109      0.009767                    
P 32    235.151541 -18403.080316 -19209.526746   -555.559541                    
V 32  18966.144094  15591.381345 -14088.717358      0.015749                    
EOF
